ONEWEB-0196             
1 48218U 21031J   25147.83272245 -.00001800  00000+0 -48906-2 0  9991
2 48218  87.9049   6.3685 0001555  86.3032 273.8276 13.14486774197599
ONEWEB-0183             
1 48219U 21031K   25147.88345180  .00000050  00000+0  10022-3 0  9999
2 48219  87.9048   6.3716 0001885  79.8389 280.2953 13.14502765197708
ONEWEB-0185             
1 48220U 21031L   25147.83349328  .00000241  00000+0  61595-3 0  9997
2 48220  87.9047   6.3495 0002198  80.0143 280.1235 13.14506619197628
ONEWEB-0187             
1 48221U 21031M   25147.88965993  .00000115  00000+0  27537-3 0  9993
2 48221  87.9050   6.3819 0002131  85.9708 274.1665 13.14503484197640
ONEWEB-0192             
1 48222U 21031N   25147.85966281 -.00000190  00000+0 -54609-3 0  9997
2 48222  87.9050   6.3808 0001810  87.8240 272.3097 13.14503635197562
ONEWEB-0219             
1 48223U 21031P   25147.15398730  .00000055  00000+0  11348-3 0  9990
2 48223  87.9051   6.4939 0001971  84.9292 275.2063 13.14503783197674
ONEWEB-0202             
1 48224U 21031Q   25147.89613882  .00000189  00000+0  47542-3 0  9993
2 48224  87.9049   6.3615 0002202 104.8194 255.3180 13.14503942197758
ONEWEB-0204             
1 48225U 21031R   25147.85411125 -.00000135  00000+0 -39886-3 0  9991
2 48225  87.9027   6.3755 0001848  75.4337 284.6997 13.14501774197647
